ONEWEB-0281             
1 48999U 21060AJ  24046.00049278  .00000007  00000+0 -15862-4 0  9997
2 48999  87.9056  38.5619 0002008  92.7266 267.4094 13.16596148128670
ONEWEB-0282             
1 49000U 21060AK  24045.95457002  .00000042  00000+0  77496-4 0  9991
2 49000  87.9055  38.5878 0001994  75.0451 285.0901 13.16594900127332
ONEWEB-0283             
1 49001U 21060AL  24045.94348812 -.00000016  00000+0 -74775-4 0  9999
2 49001  87.9053  38.5977 0002164  82.9843 277.1534 13.16595737127347
ONEWEB-0284             
1 49002U 21060AM  24046.01315013  .00000009  00000+0 -10075-4 0  9990
2 49002  87.9047  38.5747 0001876  78.1489 281.9852 13.16593736128645
ONEWEB-0285             
1 49075U 21075A   24046.04357118 -.00000221  00000+0 -65002-3 0  9997
2 49075  87.9043 160.4299 0001634 104.5645 255.5665 13.12443578124287
ONEWEB-0286             
1 49076U 21075B   24045.86236382  .00000055  00000+0  11887-3 0  9991
2 49076  87.9041 160.4727 0001580 121.9120 238.2163 13.12442037122630
ONEWEB-0287             
1 49077U 21075C   24045.87244626 -.00000012  00000+0 -63689-4 0  9996
2 49077  87.9251 175.5755 0001214 110.8388 249.2874 13.17648326121251
ONEWEB-0288             
1 49078U 21075D   24046.07520265  .00000595  00000+0  16178-2 0  9999
2 49078  87.9040 160.4344 0001435 109.1267 251.0017 13.12443936124277
